start=new Date('2023-05-13T00:00:00.000Z').valueOf();
sats=[{"PERIOD":"95.920","CENTER_NAME":"EARTH","SITE":"AFWTR","MEAN_ANOMALY":"166.9689","TIME_SYSTEM":"UTC","MEAN_MOTION":"15.01257659","OBJECT_NAME":"STARLINK-4315","APOAPSIS":"564.281","MEAN_MOTION_DOT":"-0.00000499","OBJECT_TYPE":"PAYLOAD","BSTAR":"-0.00003422100000","RA_OF_ASC_NODE":"314.3188","SEMIMAJOR_AXIS":"6941.154","REF_FRAME":"TEME","INCLINATION":"97.6539","ELEMENT_SET_NO":"999","OBJECT_ID":"2022-077AL","REV_AT_EPOCH":"4609","ARG_OF_PERICENTER":"193.1488","LAUNCH_DATE":"2022-07-11","PERIAPSIS":"561.757","DECAY_DATE":null,"MEAN_MOTION_DDOT":"0.0000000000000","EPOCH":"2023-05-12T17:53:40.612416","TLE_LINE1":"1 53077U 22077AL  23132.74560894 -.00000499  00000-0 -34221-4 0  9994","FILE":"3906381","ECCENTRICITY":"0.00018180","GP_ID":"231709725","EPHEMERIS_TYPE":"0","NORAD_CAT_ID":"53077","RCS_SIZE":"LARGE","COUNTRY_CODE":"US","MEAN_ELEMENT_THEORY":"SGP4","TLE_LINE2":"2 53077  97.6539 314.3188 0001818 193.1488 166.9689 15.01257659 46098","CLASSIFICATION_TYPE":"U"},{"EPHEMERIS_TYPE":"0","COUNTRY_CODE":"US","MEAN_ELEMENT_THEORY":"SGP4","TLE_LINE2":"2 53078  97.6538 314.3243 0000806 142.1642 217.9639 15.01257215 46092","CLASSIFICATION_TYPE":"U","NORAD_CAT_ID":"53078","RCS_SIZE":"LARGE","DECAY_DATE":null,"MEAN_MOTION_DDOT":"0.0000000000000","EPOCH":"2023-05-12T17:59:00.738240","FILE":"3906381","ECCENTRICITY":"0.00008060","GP_ID":"231709977","TLE_LINE1":"1 53078U 22077AM  23132.74931410 -.00000609  00000-0 -42799-4 0  9993","REF_FRAME":"TEME","SEMIMAJOR_AXIS":"6941.155","RA_OF_ASC_NODE":"314.3243","BSTAR":"-0.00004279900000","ARG_OF_PERICENTER":"142.1642","REV_AT_EPOCH":"4609","LAUNCH_DATE":"2022-07-11","PERIAPSIS":"562.461","INCLINATION":"97.6538","ELEMENT_SET_NO":"999","OBJECT_ID":"2022-077AM","MEAN_MOTION":"15.01257215","PERIOD":"95.920","CENTER_NAME":"EARTH","SITE":"AFWTR","TIME_SYSTEM":"UTC","MEAN_ANOMALY":"217.9639","OBJECT_TYPE":"PAYLOAD","OBJECT_NAME":"STARLINK-4322","APOAPSIS":"563.580","MEAN_MOTION_DOT":"-0.00000609"},{"GP_ID":"231709229","ECCENTRICITY":"0.00024070","FILE":"3906381","TLE_LINE1":"1 53079U 22077AN  23132.74375660 -.00000270  00000-0 -16435-4 0  9995","EPOCH":"2023-05-12T17:51:00.570240","DECAY_DATE":null,"MEAN_MOTION_DDOT":"0.0000000000000","CLASSIFICATION_TYPE":"U","TLE_LINE2":"2 53079  97.6540 314.3166 0002407 191.5106 168.6064 15.01258716 46093","MEAN_ELEMENT_THEORY":"SGP4","COUNTRY_CODE":"US","RCS_SIZE":"LARGE","NORAD_CAT_ID":"53079","EPHEMERIS_TYPE":"0","OBJECT_TYPE":"PAYLOAD","MEAN_MOTION_DOT":"-0.00000270","APOAPSIS":"564.687","OBJECT_NAME":"STARLINK-4327","MEAN_MOTION":"15.01258716","TIME_SYSTEM":"UTC","MEAN_ANOMALY":"168.6064","SITE":"AFWTR","CENTER_NAME":"EARTH","PERIOD":"95.920","PERIAPSIS":"561.345","LAUNCH_DATE":"2022-07-11","ARG_OF_PERICENTER":"191.5106","REV_AT_EPOCH":"4609","OBJECT_ID":"2022-077AN","ELEMENT_SET_NO":"999","INCLINATION":"97.6540","SEMIMAJOR_AXIS":"6941.151","REF_FRAME":"TEME","RA_OF_ASC_NODE":"314.3166","BSTAR":"-0.00001643500000"},{"PERIAPSIS":"561.989","LAUNCH_DATE":"2022-07-11","ARG_OF_PERICENTER":"184.5306","REV_AT_EPOCH":"4609","OBJECT_ID":"2022-077AP","ELEMENT_SET_NO":"999","INCLINATION":"97.6539","REF_FRAME":"TEME","SEMIMAJOR_AXIS":"6941.159","RA_OF_ASC_NODE":"314.3208","BSTAR":"-0.00007395100000","OBJECT_TYPE":"PAYLOAD","MEAN_MOTION_DOT":"-0.00001009","APOAPSIS":"564.060","OBJECT_NAME":"STARLINK-4330","MEAN_MOTION":"15.01255938","MEAN_ANOMALY":"175.5905","TIME_SYSTEM":"UTC","SITE":"AFWTR","CENTER_NAME":"EARTH","PERIOD":"95.920","CLASSIFICATION_TYPE":"U","TLE_LINE2":"2 53080  97.6539 314.3208 0001492 184.5306 175.5905 15.01255938 46091","COUNTRY_CODE":"US","MEAN_ELEMENT_THEORY":"SGP4","RCS_SIZE":"MEDIUM","NORAD_CAT_ID":"53080","EPHEMERIS_TYPE":"0","GP_ID":"231709478","ECCENTRICITY":"0.00014920","FILE":"3906381","TLE_LINE1":"1 53080U 22077AP  23132.74746209 -.00001009  00000-0 -73951-4 0  9995","DECAY_DATE":null,"MEAN_MOTION_DDOT":"0.0000000000000","EPOCH":"2023-05-12T17:56:20.724576"},{"MEAN_MOTION_DDOT":"0.0000000000000","DECAY_DATE":null,"EPOCH":"2023-05-12T01:46:14.237760","TLE_LINE1":"1 53081U 22077AQ  23132.07377590 -.00000035  00000-0  18848-5 0  9997","GP_ID":"231671659","ECCENTRICITY":"0.00028570","FILE":"3905921","EPHEMERIS_TYPE":"0","RCS_SIZE":"LARGE","NORAD_CAT_ID":"53081","CLASSIFICATION_TYPE":"U","TLE_LINE2":"2 53081  97.6546 313.6554 0002857 174.5262 185.5994 15.01259633 45995","COUNTRY_CODE":"US","MEAN_ELEMENT_THEORY":"SGP4","MEAN_ANOMALY":"185.5994","TIME_SYSTEM":"UTC","SITE":"AFWTR","CENTER_NAME":"EARTH","PERIOD":"95.919","MEAN_MOTION":"15.01259633","MEAN_MOTION_DOT":"-0.00000035","APOAPSIS":"564.996","OBJECT_NAME":"STARLINK-4326","OBJECT_TYPE":"PAYLOAD","RA_OF_ASC_NODE":"313.6554","BSTAR":"0.00000188480000","REF_FRAME":"TEME","SEMIMAJOR_AXIS":"6941.148","OBJECT_ID":"2022-077AQ","ELEMENT_SET_NO":"999","INCLINATION":"97.6546","PERIAPSIS":"561.030","LAUNCH_DATE":"2022-07-11","ARG_OF_PERICENTER":"174.5262","REV_AT_EPOCH":"4599"},{"SITE":"AFWTR","CENTER_NAME":"EARTH","PERIOD":"95.919","TIME_SYSTEM":"UTC","MEAN_ANOMALY":"178.5040","MEAN_MOTION":"15.01260159","OBJECT_NAME":"STARLINK-4321","MEAN_MOTION_DOT":"0.00000095","APOAPSIS":"565.112","OBJECT_TYPE":"PAYLOAD","BSTAR":"0.00001196500000","RA_OF_ASC_NODE":"314.3142","SEMIMAJOR_AXIS":"6941.146","REF_FRAME":"TEME","ELEMENT_SET_NO":"999","INCLINATION":"97.6541","OBJECT_ID":"2022-077AR","ARG_OF_PERICENTER":"181.6175","REV_AT_EPOCH":"4609","PERIAPSIS":"560.911","LAUNCH_DATE":"2022-07-11","DECAY_DATE":null,"EPOCH":"2023-05-12T17:48:20.581632","MEAN_MOTION_DDOT":"0.0000000000000","TLE_LINE1":"1 53082U 22077AR  23132.74190488  .00000095  00000-0  11965-4 0  9998","FILE":"3906381","GP_ID":"231710477","ECCENTRICITY":"0.00030260","EPHEMERIS_TYPE":"0","RCS_SIZE":"LARGE","NORAD_CAT_ID":"53082","TLE_LINE2":"2 53082  97.6541 314.3142 0003026 181.6175 178.5040 15.01260159 46094","COUNTRY_CODE":"US","MEAN_ELEMENT_THEORY":"SGP4","CLASSIFICATION_TYPE":"U"},{"EPHEMERIS_TYPE":"0","RCS_SIZE":"LARGE","NORAD_CAT_ID":"53083","CLASSIFICATION_TYPE":"U","TLE_LINE2":"2 53083  97.6579 313.6488 0003680 124.3411 235.8161 15.01260107 45996","COUNTRY_CODE":"US","MEAN_ELEMENT_THEORY":"SGP4","EPOCH":"2023-05-12T01:29:53.704032","DECAY_DATE":null,"MEAN_MOTION_DDOT":"0.0000000000000","TLE_LINE1":"1 53083U 22077AS  23132.06242713  .00000565  00000-0  48565-4 0  9991","GP_ID":"231673151","ECCENTRICITY":"0.00036800","FILE":"3905921","RA_OF_ASC_NODE":"313.6488","BSTAR":"0.00004856500000","REF_FRAME":"TEME","SEMIMAJOR_AXIS":"6941.147","OBJECT_ID":"2022-077AS","INCLINATION":"97.6579","ELEMENT_SET_NO":"999","PERIAPSIS":"560.457","LAUNCH_DATE":"2022-07-11","REV_AT_EPOCH":"4599","ARG_OF_PERICENTER":"124.3411","TIME_SYSTEM":"UTC","MEAN_ANOMALY":"235.8161","CENTER_NAME":"EARTH","SITE":"AFWTR","PERIOD":"95.919","MEAN_MOTION":"15.01260107","MEAN_MOTION_DOT":"0.00000565","APOAPSIS":"565.566","OBJECT_NAME":"STARLINK-4251","OBJECT_TYPE":"PAYLOAD"},{"ARG_OF_PERICENTER":"177.3138","REV_AT_EPOCH":"4609","LAUNCH_DATE":"2022-07-11","PERIAPSIS":"560.595","ELEMENT_SET_NO":"999","INCLINATION":"97.6543","OBJECT_ID":"2022-077AT","SEMIMAJOR_AXIS":"6941.149","REF_FRAME":"TEME","BSTAR":"-0.00000681310000","RA_OF_ASC_NODE":"314.3122","OBJECT_TYPE":"PAYLOAD","OBJECT_NAME":"STARLINK-4319","APOAPSIS":"565.433","MEAN_MOTION_DOT":"-0.00000147","MEAN_MOTION":"15.01259265","PERIOD":"95.919","SITE":"AFWTR","CENTER_NAME":"EARTH","TIME_SYSTEM":"UTC","MEAN_ANOMALY":"182.8105","COUNTRY_CODE":"US","MEAN_ELEMENT_THEORY":"SGP4","TLE_LINE2":"2 53084  97.6543 314.3122 0003485 177.3138 182.8105 15.01259265 46092","CLASSIFICATION_TYPE":"U","NORAD_CAT_ID":"53084","RCS_SIZE":"LARGE","EPHEMERIS_TYPE":"0","FILE":"3906381","ECCENTRICITY":"0.00034850","GP_ID":"231708980","TLE_LINE1":"1 53084U 22077AT  23132.74005488 -.00000147  00000-0 -68131-5 0  9993","DECAY_DATE":null,"MEAN_MOTION_DDOT":"0.0000000000000","EPOCH":"2023-05-12T17:45:40.741632"},{"OBJECT_NAME":"STARLINK-4324","MEAN_MOTION_DOT":"-0.00000138","APOAPSIS":"563.888","OBJECT_TYPE":"PAYLOAD","SITE":"AFWTR","CENTER_NAME":"EARTH","PERIOD":"95.919","MEAN_ANOMALY":"276.2490","TIME_SYSTEM":"UTC","MEAN_MOTION":"15.01261995","INCLINATION":"97.6554","ELEMENT_SET_NO":"999","OBJECT_ID":"2022-077AU","ARG_OF_PERICENTER":"83.8879","REV_AT_EPOCH":"4599","PERIAPSIS":"562.123","LAUNCH_DATE":"2022-07-11","BSTAR":"-0.00000618530000","RA_OF_ASC_NODE":"313.6539","SEMIMAJOR_AXIS":"6941.141","REF_FRAME":"TEME","TLE_LINE1":"1 53085U 22077AU  23132.06822285 -.00000138  00000-0 -61853-5 0  9995","FILE":"3905921","GP_ID":"231672158","ECCENTRICITY":"0.00012710","MEAN_MOTION_DDOT":"0.0000000000000","DECAY_DATE":null,"EPOCH":"2023-05-12T01:38:14.454240","RCS_SIZE":"LARGE","NORAD_CAT_ID":"53085","TLE_LINE2":"2 53085  97.6554 313.6539 0001271  83.8879 276.2490 15.01261995 45999","COUNTRY_CODE":"US","MEAN_ELEMENT_THEORY":"SGP4","CLASSIFICATION_TYPE":"U","EPHEMERIS_TYPE":"0"},{"OBJECT_ID":"2022-077AV","ELEMENT_SET_NO":"999","INCLINATION":"97.6546","LAUNCH_DATE":"2022-07-11","PERIAPSIS":"560.816","REV_AT_EPOCH":"4609","ARG_OF_PERICENTER":"173.4402","BSTAR":"0.00001783900000","RA_OF_ASC_NODE":"314.3102","SEMIMAJOR_AXIS":"6941.146","REF_FRAME":"TEME","APOAPSIS":"565.207","MEAN_MOTION_DOT":"0.00000170","OBJECT_NAME":"STARLINK-4318","OBJECT_TYPE":"PAYLOAD","MEAN_ANOMALY":"186.6864","TIME_SYSTEM":"UTC","PERIOD":"95.919","SITE":"AFWTR","CENTER_NAME":"EARTH","MEAN_MOTION":"15.01260129","NORAD_CAT_ID":"53086","RCS_SIZE":"LARGE","CLASSIFICATION_TYPE":"U","COUNTRY_CODE":"US","MEAN_ELEMENT_THEORY":"SGP4","TLE_LINE2":"2 53086  97.6546 314.3102 0003163 173.4402 186.6864 15.01260129 46094","EPHEMERIS_TYPE":"0","TLE_LINE1":"1 53086U 22077AV  23132.73820315  .00000170  00000-0  17839-4 0  9990","ECCENTRICITY":"0.00031630","GP_ID":"231709978","FILE":"3906381","DECAY_DATE":null,"EPOCH":"2023-05-12T17:43:00.752160","MEAN_MOTION_DDOT":"0.0000000000000"}];
